# From MPC106342
C/1995 O1 (Hale-Bopp),e,89.0648,283.2019,130.4942,178.3873,0.0004137,0.99495499,0.0000,03/29.7446/1997,2000,g -2.0,4.0
# From NK 1615
P/1996 R2 (Lagerkvist),e,2.6004,40.0219,333.3243,3.775004,0.1343779,0.31420946,115.4523,06/20.0/2021,2000,g 11.5,4.0
# From MPC 30063
P/1997 B1 (Kobayashi),e,12.3395,328.8819,183.3377,8.574770,0.0392528,0.76023451,348.9403,06/20.0/2021,2000,g 15.0,2.0
# From MPC 75703
P/1998 VS24 (LINEAR),e,5.0260,159.0349,244.6272,4.528332,0.1022814,0.24227948,127.7322,06/20.0/2021,2000,g 13.0,2.0
# From NK 731
P/1999 RO28 (LONEOS),e,7.5672,137.8854,231.2644,3.426717,0.1553770,0.67222397,112.6095,06/20.0/2021,2000,g 20.0,2.0
# From MPC 75704
P/1999 XN120 (Catalina),e,5.0296,285.2964,161.8335,4.179048,0.1153687,0.21022548,169.7359,06/20.0/2021,2000,g 13.5,2.0
# From NK 744
P/2000 R2 (LINEAR),e,11.6861,160.2881,176.5393,3.466648,0.1527001,0.53160550,112.0027,06/20.0/2021,2000,g 18.0,4.0
# From MPC 43019
P/2001 H5 (NEAT),e,8.3669,328.6833,224.8479,6.097742,0.0654562,0.59843179,135.6103,06/20.0/2021,2000,g 12.0,4.0
# From MPC 75704
P/2001 Q6 (NEAT),e,56.9081,22.1549,42.9321,7.953379,0.0439417,0.82296504,316.7697,06/20.0/2021,2000,g 13.5,4.0
# From MPC 47727
P/2002 EJ57 (LINEAR),e,4.9762,330.3256,167.3594,6.470637,0.0598802,0.59243645,65.7473,06/20.0/2021,2000,g 12.5,4.0
# From MPC109588
P/2002 T6 (NEAT-LINEAR),e,10.8368,206.2806,219.6619,7.683610,0.0462760,0.56065948,307.7843,06/20.0/2021,2000,g 10.5,4.0
# From MPC 75007
C/2002 VQ94 (LINEAR),e,70.6072,35.0529,100.1250,185.1304,0.0003913,0.96310734,2.2000,06/20.0/2021,2000,g  9.5,2.0
# From MPC 50354
P/2003 F2 (NEAT),e,11.6057,359.0354,192.0866,6.498776,0.0594918,0.54230989,34.8229,06/20.0/2021,2000,g 16.5,2.0
# From MPC 50139
P/2003 QX29 (NEAT),e,11.3901,264.5690,37.4884,8.027734,0.0433326,0.47298964,294.6835,06/20.0/2021,2000,g  8.5,4.0
# From MPC105235
P/2003 T12 (SOHO),e,11.0192,174.5762,219.7572,2.585980,0.2370098,0.76975078,96.9618,06/20.0/2021,2000,g 17.0,4.0
# From MPC 82312
P/2004 A1 (LONEOS),e,10.5516,124.8478,21.3068,7.960615,0.0438818,0.30933300,270.4143,06/20.0/2021,2000,g  6.5,4.0
# From MPC 54558
P/2004 DO29 (Spacewatch-LINEAR),e,14.5323,147.3732,40.6719,7.285536,0.0501201,0.44115868,305.8408,06/20.0/2021,2000,g 13.5,2.0
# From MPC 54823
P/2004 FY140 (LINEAR),e,2.1348,326.7620,242.3974,4.903225,0.0907782,0.16827148,195.9777,06/20.0/2021,2000,g 12.5,2.0
# From MPC 53304
P/2004 R3 (LINEAR-NEAT),e,12.8062,305.4647,38.0479,4.792916,0.0939300,0.25995555,351.0088,06/20.0/2021,2000,g 14.5,4.0
# From MPC 55521
P/2004 V3 (Siding Spring),e,50.4400,356.1233,322.3518,7.140678,0.0516529,0.44633085,314.2774,06/20.0/2021,2000,g 11.5,4.0
# From MPC 75705
P/2004 V5 (LINEAR-Hill),e,19.3421,47.7831,87.7066,7.979555,0.0437256,0.44361932,261.5991,06/20.0/2021,2000,g  8.0,4.0
# From MPC 54164
P/2005 E1 (Tubbiolo),e,4.2637,335.5680,194.0575,7.040531,0.0527589,0.37514380,316.1267,06/20.0/2021,2000,g 10.0,4.0
# From MPC 54823
P/2005 GF8 (LONEOS),e,1.1907,314.7790,284.7533,5.834487,0.0699359,0.51747974,44.1127,06/20.0/2021,2000,g 11.5,4.0
# From MPC 79019
P/2005 J1 (McNaught),e,31.7611,268.8117,338.9617,3.570429,0.1460910,0.56962064,143.3883,06/20.0/2021,2000,g 16.5,4.0
# From MPC 74246
P/2005 L1 (McNaught),e,7.7386,138.2478,149.7246,3.975770,0.1243289,0.20954676,343.1251,06/20.0/2021,2000,g  9.5,4.0
# From MPC 75706
P/2005 S2 (Skiff),e,3.1357,161.2091,229.1650,8.014768,0.0434378,0.19742034,239.7977,06/20.0/2021,2000,g  7.5,4.0
# From MPC 75706
P/2005 SB216 (LONEOS),e,24.0861,1.1901,83.3599,7.131811,0.0517493,0.46370496,273.4030,06/20.0/2021,2000,g 12.0,2.0
# From MPC 55717
P/2005 T2 (Christensen),e,8.2921,260.1598,58.8370,3.846625,0.1306425,0.41637323,57.1669,06/20.0/2021,2000,g 14.5,4.0
# From MPC 73461
P/2005 T3 (Read),e,6.2238,27.7157,6.8210,7.582454,0.0472052,0.17441523,270.9758,06/20.0/2021,2000,g  9.0,4.0
# From MPC 73461
P/2005 T4 (SWAN),e,160.2123,25.7554,41.6602,9.361250,0.0344115,0.92977094,197.5811,06/20.0/2021,2000,g 15.0,4.0
# From MPC 75706
P/2005 T5 (Broughton),e,21.3608,57.0021,304.5670,7.289367,0.0500806,0.55231351,287.1182,06/20.0/2021,2000,g 11.0,4.0
# From MPC 56954
P/2005 W3 (Kowalski),e,16.4204,210.0853,200.7268,6.328676,0.0619063,0.54334644,354.2496,06/20.0/2021,2000,g 12.0,4.0
# From MPC 75706
P/2005 Y2 (McNaught),e,19.0595,94.4171,193.9059,6.381350,0.0611414,0.47049018,14.8781,06/20.0/2021,2000,g  9.0,4.0
# From MPC 56954
P/2006 F4 (Spacewatch),e,12.4234,183.8302,30.9655,3.521959,0.1491172,0.34011195,102.5266,06/20.0/2021,2000,g 15.0,4.0
# From MPC 75707
P/2006 HR30 (Siding Spring),e,31.8310,309.8997,117.2922,7.811150,0.0451473,0.84231059,239.4305,06/20.0/2021,2000,g 11.0,4.0
# From MPEC 2021-M34
P/2006 S4 (Christensen),e,39.5318,36.0780,305.1404,6.316160,0.0620904,0.50837444,347.0922,06/20.0/2021,2000,g 11.0,4.0
# From MPC 75707
P/2007 A2 (Christensen),e,26.4877,300.9077,186.7324,6.328223,0.0619129,0.55776963,327.3576,06/20.0/2021,2000,g 13.5,4.0
# From MPC 75707
P/2007 C2 (Catalina),e,8.6361,275.5135,180.0374,6.992229,0.0533066,0.47088551,267.2395,06/20.0/2021,2000,g 10.0,4.0
# From MPC 84315
C/2007 D1 (LINEAR),e,41.5017,171.2088,340.0150,1408,0.0000187,0.99373382,0.0000,06/08.4236/2007,2000,g  3.5,4.0
# From MPC 82314
P/2007 K2 (Gibbs),e,7.6322,188.6423,347.4377,7.265786,0.0503246,0.68309184,258.3216,06/20.0/2021,2000,g 14.0,4.0
# From MPC 60925
P/2007 Q2 (Gilmore),e,10.2027,172.1599,162.7785,5.652532,0.0733398,0.67010675,15.0368,06/20.0/2021,2000,g 16.0,4.0
# From MPC 75708
P/2007 R4 (Garradd),e,20.2132,87.2117,282.5904,5.935409,0.0681598,0.67022403,348.2951,06/20.0/2021,2000,g 14.5,4.0
# From MPC 73462
P/2007 S1 (Zhao),e,5.9639,141.3711,245.5964,3.816445,0.1321951,0.33958101,297.1879,06/20.0/2021,2000,g 13.0,4.0
# From MPC 61994
P/2007 T2 (Kowalski),e,9.7487,3.3747,359.6393,3.046881,0.1853194,0.78541257,196.8144,06/20.0/2021,2000,g 18.5,4.0
# From MPC 75708
P/2008 CL94 (Lemmon),e,8.3465,33.3199,80.4175,6.162920,0.0644205,0.12050723,354.0464,06/20.0/2021,2000,g  8.0,4.0
# From MPC 75709
P/2008 L2 (Hill),e,25.8624,218.0089,141.2256,6.028370,0.0665893,0.61320995,314.0462,06/20.0/2021,2000,g 12.5,4.0
# From MPC 64114
P/2008 O3 (Boattini),e,32.2739,47.5859,341.1023,8.221057,0.0418131,0.69550161,199.6329,06/20.0/2021,2000,g 13.0,4.0
# From MPC 75709
P/2008 QP20 (LINEAR-Hill),e,7.5226,322.0725,75.5324,3.553598,0.1471301,0.49175337,331.1420,06/20.0/2021,2000,g 15.5,4.0
# From MPC 66204
P/2008 WZ96 (LINEAR),e,7.1117,56.4467,341.9306,3.487124,0.1513572,0.46984173,349.7406,06/20.0/2021,2000,g 13.5,4.0
# From MPC 75710
P/2008 Y3 (McNaught),e,38.7671,262.8040,238.2021,8.046914,0.0431778,0.44545919,197.0130,06/20.0/2021,2000,g  8.5,4.0
# From MPC 75710
P/2009 B1 (Boattini),e,22.2207,297.0893,128.8779,6.737014,0.0563641,0.63487372,256.3810,06/20.0/2021,2000,g 13.0,4.0
# From MPC 66466
C/2009 G1 (STEREO),e,108.7251,120.4450,175.4260,438.5715,0.0001073,0.99740763,0.0000,04/15.9835/2009,2000,g  9.0,4.0
# From MPC 75710
P/2009 O3 (Hill),e,16.2746,183.7016,154.4221,7.769159,0.0455138,0.68776929,200.7668,06/20.0/2021,2000,g 12.5,4.0
# From MPC 68902
P/2009 Q5 (McNaught),e,40.9843,160.2746,209.0301,7.435801,0.0486085,0.60908991,209.2942,06/20.0/2021,2000,g 10.0,4.0
# From MPC112389
P/2009 T2 (La Sagra),e,27.5652,215.8232,216.3826,7.723095,0.0459216,0.76540160,192.5394,06/20.0/2021,2000,g 14.0,4.0
# From MPC105235
P/2009 WX51 (Catalina),e,9.5946,31.6741,118.0965,3.081066,0.1822437,0.74026672,39.2993,06/20.0/2021,2000,g 19.0,2.0
# From MPC 74247
P/2009 Y2 (Kowalski),e,29.9346,262.0259,172.1460,6.549954,0.0587959,0.63605331,242.8080,06/20.0/2021,2000,g 13.0,4.0
# From MPC 75711
P/2010 A3 (Hill),e,14.8385,63.8835,42.1099,6.078248,0.0657713,0.73347920,270.4300,06/20.0/2021,2000,g 14.0,4.0
# From MPC 75008
P/2010 C1 (Scotti),e,9.1281,141.8862,3.6684,7.103531,0.0520586,0.25883564,220.6160,06/20.0/2021,2000,g  9.5,4.0
# From MPC 75008
P/2010 D2 (WISE),e,57.0858,319.8909,120.0375,6.717116,0.0566148,0.45100142,234.6825,06/20.0/2021,2000,g 16.0,4.0
# From MPC 75009
P/2010 E2 (Jarnac),e,15.3957,177.8234,8.3599,8.639118,0.0388150,0.71987384,159.0690,06/20.0/2021,2000,g 14.0,4.0
# From MPC 72851
P/2010 H2 (Vales),e,14.2743,64.1972,128.1148,3.833538,0.1313120,0.19587872,181.2616,06/20.0/2021,2000,g  6.0,4.0
# From MPC 70361
P/2010 H3 (SOHO),e,23.0803,77.0970,26.1453,3.037757,0.1861550,0.98537684,0.0000,02/07.9629/2021,2000,g 20.0,2.0
# From MPC 73463
P/2010 H4 (Scotti),e,2.3184,44.7398,179.5275,6.592169,0.0582320,0.26709141,234.1109,06/20.0/2021,2000,g 10.5,4.0
# From MPC 74637
P/2010 H5 (Scotti),e,14.0629,24.8047,175.1731,7.162340,0.0514188,0.15317258,210.5434,06/20.0/2021,2000,g 13.0,2.0
# From MPC 98558
P/2010 J3 (McMillan),e,13.2854,106.4197,157.5977,8.973165,0.0366679,0.72685230,144.7444,06/20.0/2021,2000,g 11.0,4.0
# From MPC 84315
P/2010 JC81 (WISE),e,38.7538,30.8494,12.4299,8.109450,0.0426793,0.77705106,158.5059,06/20.0/2021,2000,g  9.0,4.0
# From MPC 74248
P/2010 T2 (PANSTARRS),e,7.8970,58.8720,353.3593,5.530232,0.0757860,0.32155783,283.7108,06/20.0/2021,2000,g 11.5,4.0
# From MPC 98558
P/2010 TO20 (LINEAR-Grauer),e,2.4789,43.2931,266.8391,5.830816,0.0700019,0.05503735,323.7217,06/20.0/2021,2000,g  9.0,4.0
# From MPC 82316
P/2010 U1 (Boattini),e,8.2152,280.7075,85.9702,6.509415,0.0593460,0.24844871,247.0735,06/20.0/2021,2000,g  9.5,4.0
# From MPC119994
C/2010 U3 (Boattini),e,55.5291,43.0203,88.0613,2271,0.0000091,0.99628203,0.0000,02/25.5848/2019,2000,g  1.0,4.0
# From MPC 79021
P/2010 UH55 (Spacewatch),e,8.0415,232.9465,225.1741,6.652795,0.0574378,0.56336723,213.8817,06/20.0/2021,2000,g 11.0,4.0
# From MPC 75009
P/2010 WK (LINEAR),e,11.4011,11.3236,40.9712,5.761419,0.0712705,0.68997770,279.6050,06/20.0/2021,2000,g 14.5,2.0
# From MPC 82317
P/2011 A2 (Scotti),e,4.4749,54.6764,94.5135,3.106021,0.1800518,0.49949412,330.3561,06/20.0/2021,2000,g 16.5,4.0
# From MPC 84021
P/2011 C2 (Gibbs),e,10.8850,12.1242,160.8933,7.413771,0.0488253,0.26889537,168.9427,06/20.0/2021,2000,g  9.0,4.0
# From MPC 79866
